STARLINK-30930          
1 58385U 23178M   26068.21275338  .00002556  00000+0  98399-4 0  9992
2 58385  53.1624   2.9127 0001328 125.1056 235.0069 15.30204033129690
XCUBE-1                 
1 62400U 24247Z   26068.48297321  .00009773  00000+0  36224-3 0  9994
2 62400  44.9938 117.7807 0005235 331.1499  28.9094 15.27910558 67702
