[{"OBJECT_NAME":"STARLINK-30930","OBJECT_ID":"2023-178M","EPOCH":"2026-03-09T05:06:21.892032","MEAN_MOTION":15.30204033,"ECCENTRICITY":0.00013289,"INCLINATION":53.1624,"RA_OF_ASC_NODE":2.9127,"ARG_OF_PERICENTER":125.1056,"MEAN_ANOMALY":235.0069,"EPHEMERIS_TYPE":0,"CLASSIFICATION_TYPE":"U","NORAD_CAT_ID":58385,"ELEMENT_SET_NO":999,"REV_AT_EPOCH":12969,"BSTAR":9.8399339e-5,"MEAN_MOTION_DOT":2.556e-5,"MEAN_MOTION_DDOT":0},{"OBJECT_NAME":"XCUBE-1","OBJECT_ID":"2024-247Z","EPOCH":"2026-03-09T11:35:28.885344","MEAN_MOTION":15.27910558,"ECCENTRICITY":0.00052355,"INCLINATION":44.9938,"RA_OF_ASC_NODE":117.7807,"ARG_OF_PERICENTER":331.1499,"MEAN_ANOMALY":28.9094,"EPHEMERIS_TYPE":0,"CLASSIFICATION_TYPE":"U","NORAD_CAT_ID":62400,"ELEMENT_SET_NO":999,"REV_AT_EPOCH":6770,"BSTAR":0.00036224252,"MEAN_MOTION_DOT":9.773e-5,"MEAN_MOTION_DDOT":0}]
